{
  "type": "FeatureCollection",
  "features": [
    {
      "type": "Feature",
      "properties": {
        "norad_id": 28054,
        "name": "DMSP 5D-3 F16 (USA 172)",
        "group": "weather",
        "lat": -2.909420587880481,
        "lon": 17.72369433468755,
        "alt_km": 846.5693230637116,
        "timestamp": "2025-12-25T16:53:14.296079+00:00",
        "meta_object_name": "DMSP 5D-3 F16 (USA 172)",
        "meta_object_id": "2003-048A",
        "meta_epoch": "2025-12-25T06:59:56.262624",
        "meta_mean_motion": 14.14428544,
        "meta_eccentricity": 0.00062438,
        "meta_inclination": 99.0038,
        "meta_ra_of_asc_node": 16.8468,
        "meta_arg_of_pericenter": 280.5436,
        "meta_mean_anomaly": 139.7708,
        "meta_ephemeris_type": 0,
        "meta_classification_type": "U",
        "meta_norad_cat_id": 28054,
        "meta_element_set_no": 999,
        "meta_rev_at_epoch": 14490,
        "meta_bstar": 8.0326006e-05,
        "meta_mean_motion_dot": 1.08e-06,
        "meta_mean_motion_ddot": 0,
        "tle_line1": "1 28054U 03048A   25359.29162341  .00000108  00000+0  80326-4 0  9997",
        "tle_line2": "2 28054  99.0038  16.8468 0006243 280.5436 139.7708 14.14428544144906"
      },
      "geometry": {
        "type": "Point",
        "coordinates": [
          17.72369433468755,
          -2.909420587880481
        ]
      }
    },
    {
      "type": "Feature",
      "properties": {
        "norad_id": 28912,
        "name": "METEOSAT-9 (MSG-2)",
        "group": "weather",
        "lat": -3.4296475145292624,
        "lon": 33.495100528620426,
        "alt_km": 35613.60596559842,
        "timestamp": "2025-12-25T16:53:14.296128+00:00",
        "meta_object_name": "METEOSAT-9 (MSG-2)",
        "meta_object_id": "2005-049B",
        "meta_epoch": "2025-12-24T18:27:10.310976",
        "meta_mean_motion": 1.00268275,
        "meta_eccentricity": 0.00719695,
        "meta_inclination": 8.9553,
        "meta_ra_of_asc_node": 55.846,
        "meta_arg_of_pericenter": 282.2974,
        "meta_mean_anomaly": 77.0088,
        "meta_ephemeris_type": 0,
        "meta_classification_type": "U",
        "meta_norad_cat_id": 28912,
        "meta_element_set_no": 999,
        "meta_rev_at_epoch": 524,
        "meta_bstar": 0,
        "meta_mean_motion_dot": 1.45e-06,
        "meta_mean_motion_ddot": 0,
        "tle_line1": "1 28912U 05049B   25358.76886934  .00000145  00000+0  00000+0 0  9992",
        "tle_line2": "2 28912   8.9553  55.8460 0071969 282.2974  77.0088  1.00268275  5240"
      },
      "geometry": {
        "type": "Point",
        "coordinates": [
          33.495100528620426,
          -3.4296475145292624
        ]
      }
    },
    {
      "type": "Feature",
      "properties": {
        "norad_id": 29522,
        "name": "DMSP 5D-3 F17 (USA 191)",
        "group": "weather",
        "lat": -39.16446022942451,
        "lon": 12.020490799027362,
        "alt_km": 853.9764799353134,
        "timestamp": "2025-12-25T16:53:14.296146+00:00",
        "meta_object_name": "DMSP 5D-3 F17 (USA 191)",
        "meta_object_id": "2006-050A",
        "meta_epoch": "2025-12-25T05:11:41.541792",
        "meta_mean_motion": 14.14924728,
        "meta_eccentricity": 0.0009942,
        "meta_inclination": 98.7393,
        "meta_ra_of_asc_node": 4.3457,
        "meta_arg_of_pericenter": 187.6997,
        "meta_mean_anomaly": 172.4026,
        "meta_ephemeris_type": 0,
        "meta_classification_type": "U",
        "meta_norad_cat_id": 29522,
        "meta_element_set_no": 999,
        "meta_rev_at_epoch": 98781,
        "meta_bstar": 0.00010165294,
        "meta_mean_motion_dot": 1.53e-06,
        "meta_mean_motion_ddot": 0,
        "tle_line1": "1 29522U 06050A   25359.21645303  .00000153  00000+0  10165-3 0  9993",
        "tle_line2": "2 29522  98.7393   4.3457 0009942 187.6997 172.4026 14.14924728987812"
      },
      "geometry": {
        "type": "Point",
        "coordinates": [
          12.020490799027362,
          -39.16446022942451
        ]
      }
    },
    {
      "type": "Feature",
      "properties": {
        "norad_id": 32958,
        "name": "FENGYUN 3A",
        "group": "weather",
        "lat": -66.7893023365247,
        "lon": 98.11120578295713,
        "alt_km": 829.0529766075451,
        "timestamp": "2025-12-25T16:53:14.296160+00:00",
        "meta_object_name": "FENGYUN 3A",
        "meta_object_id": "2008-026A",
        "meta_epoch": "2025-12-25T07:15:43.176384",
        "meta_mean_motion": 14.19518489,
        "meta_eccentricity": 0.00076056,
        "meta_inclination": 98.6714,
        "meta_ra_of_asc_node": 298.5658,
        "meta_arg_of_pericenter": 269.6789,
        "meta_mean_anomaly": 90.3516,
        "meta_ephemeris_type": 0,
        "meta_classification_type": "U",
        "meta_norad_cat_id": 32958,
        "meta_element_set_no": 999,
        "meta_rev_at_epoch": 91073,
        "meta_bstar": 8.4979226e-05,
        "meta_mean_motion_dot": 1.36e-06,
        "meta_mean_motion_ddot": 0,
        "tle_line1": "1 32958U 08026A   25359.30258306  .00000136  00000+0  84979-4 0  9994",
        "tle_line2": "2 32958  98.6714 298.5658 0007605 269.6789  90.3516 14.19518489910736"
      },
      "geometry": {
        "type": "Point",
        "coordinates": [
          98.11120578295713,
          -66.7893023365247
        ]
      }
    },
    {
      "type": "Feature",
      "properties": {
        "norad_id": 35491,
        "name": "GOES 14",
        "group": "weather",
        "lat": 0.7046681259324149,
        "lon": -130.1582226387691,
        "alt_km": 35833.076366574474,
        "timestamp": "2025-12-25T16:53:14.296175+00:00",
        "meta_object_name": "GOES 14",
        "meta_object_id": "2009-033A",
        "meta_epoch": "2025-12-25T06:10:38.820000",
        "meta_mean_motion": 1.00097043,
        "meta_eccentricity": 6.808e-05,
        "meta_inclination": 1.2344,
        "meta_ra_of_asc_node": 85.2768,
        "meta_arg_of_pericenter": 191.8566,
        "meta_mean_anomaly": 151.906,
        "meta_ephemeris_type": 0,
        "meta_classification_type": "U",
        "meta_norad_cat_id": 35491,
        "meta_element_set_no": 999,
        "meta_rev_at_epoch": 484,
        "meta_bstar": 0,
        "meta_mean_motion_dot": 3.7e-07,
        "meta_mean_motion_ddot": 0,
        "tle_line1": "1 35491U 09033A   25359.25739375  .00000037  00000+0  00000+0 0  9990",
        "tle_line2": "2 35491   1.2344  85.2768 0000680 191.8566 151.9060  1.00097043  4846"
      },
      "geometry": {
        "type": "Point",
        "coordinates": [
          -130.1582226387691,
          0.7046681259324149
        ]
      }
    },
    {
      "type": "Feature",
      "properties": {
        "norad_id": 35951,
        "name": "DMSP 5D-3 F18 (USA 210)",
        "group": "weather",
        "lat": -1.0808715046998465,
        "lon": 155.87138730247523,
        "alt_km": 853.6043658910357,
        "timestamp": "2025-12-25T16:53:14.296188+00:00",
        "meta_object_name": "DMSP 5D-3 F18 (USA 210)",
        "meta_object_id": "2009-057A",
        "meta_epoch": "2025-12-25T05:51:04.439232",
        "meta_mean_motion": 14.14777356,
        "meta_eccentricity": 0.00116911,
        "meta_inclination": 98.885,
        "meta_ra_of_asc_node": 335.5829,
        "meta_arg_of_pericenter": 29.6912,
        "meta_mean_anomaly": 330.4922,
        "meta_ephemeris_type": 0,
        "meta_classification_type": "U",
        "meta_norad_cat_id": 35951,
        "meta_element_set_no": 999,
        "meta_rev_at_epoch": 83499,
        "meta_bstar": 0.00016719124,
        "meta_mean_motion_dot": 2.78e-06,
        "meta_mean_motion_ddot": 0,
        "tle_line1": "1 35951U 09057A   25359.24380138  .00000278  00000+0  16719-3 0  9990",
        "tle_line2": "2 35951  98.8850 335.5829 0011691  29.6912 330.4922 14.14777356834996"
      },
      "geometry": {
        "type": "Point",
        "coordinates": [
          155.87138730247523,
          -1.0808715046998465
        ]
      }
    },
    {
      "type": "Feature",
      "properties": {
        "norad_id": 36411,
        "name": "EWS-G2 (GOES 15)",
        "group": "weather",
        "lat": -0.49497883851091107,
        "lon": 49.155084935087956,
        "alt_km": 35805.40243700422,
        "timestamp": "2025-12-25T16:53:14.296202+00:00",
        "meta_object_name": "EWS-G2 (GOES 15)",
        "meta_object_id": "2010-008A",
        "meta_epoch": "2025-12-24T23:39:47.870208",
        "meta_mean_motion": 1.00271022,
        "meta_eccentricity": 0.00055831,
        "meta_inclination": 0.8419,
        "meta_ra_of_asc_node": 86.0741,
        "meta_arg_of_pericenter": 179.0793,
        "meta_mean_anomaly": 244.9011,
        "meta_ephemeris_type": 0,
        "meta_classification_type": "U",
        "meta_norad_cat_id": 36411,
        "meta_element_set_no": 999,
        "meta_rev_at_epoch": 5789,
        "meta_bstar": 0,
        "meta_mean_motion_dot": 5.9e-07,
        "meta_mean_motion_ddot": 0,
        "tle_line1": "1 36411U 10008A   25358.98597072  .00000059  00000+0  00000+0 0  9996",
        "tle_line2": "2 36411   0.8419  86.0741 0005583 179.0793 244.9011  1.00271022 57897"
      },
      "geometry": {
        "type": "Point",
        "coordinates": [
          49.155084935087956,
          -0.49497883851091107
        ]
      }
    }
  ]
}